{"type": "FeatureCollection", "features": [ {"type": "Feature", "properties": {"norad_id": 34433, "name": "COSMOS 2251 DEB", "group": "cosmos-2251-debris", "lat": -11.73789656099847, "lon": -44.217909205242506, "alt_km": 824.4127546443024, "timestamp": "2025-12-25T11:37:44.833790+00:00", "meta": {"OBJECT_NAME": "COSMOS 2251 DEB", "OBJECT_ID": "1993-036SA", "EPOCH": "2025-12-25T02:12:36.614016", "MEAN_MOTION": 14.12907554, "ECCENTRICITY": 0.015284, "INCLINATION": 74.0102, "RA_OF_ASC_NODE": 133.0614, "ARG_OF_PERICENTER": 268.5186, "MEAN_ANOMALY": 89.8442, "EPHEMERIS_TYPE": 0, "CLASSIFICATION_TYPE": "U", "NORAD_CAT_ID": 34433, "ELEMENT_SET_NO": 999, "REV_AT_EPOCH": 86124, "BSTAR": 0.0013759, "MEAN_MOTION_DOT": 2.836e-05, "MEAN_MOTION_DDOT": 0}, "tle": {"line1": "1 34433U 93036SA  25359.09209044  .00002836  00000+0  13759-2 0  9995", "line2": "2 34433  74.0102 133.0614 0152840 268.5186  89.8442 14.12907554861241"}}, "geometry": {"type": "Point", "coordinates": [-44.217909205242506, -11.73789656099847]}}, {"type": "Feature", "properties": {"norad_id": 34434, "name": "COSMOS 2251 DEB", "group": "cosmos-2251-debris", "lat": 66.44859723498195, "lon": 127.48580565266177, "alt_km": 728.8977263081888, "timestamp": "2025-12-25T11:37:44.833800+00:00", "meta": {"OBJECT_NAME": "COSMOS 2251 DEB", "OBJECT_ID": "1993-036SB", "EPOCH": "2025-12-25T04:41:29.673312", "MEAN_MOTION": 13.89880874, "ECCENTRICITY": 0.0273478, "INCLINATION": 74.0626, "RA_OF_ASC_NODE": 348.9386, "ARG_OF_PERICENTER": 123.206, "MEAN_ANOMALY": 339.3299, "EPHEMERIS_TYPE": 0, "CLASSIFICATION_TYPE": "U", "NORAD_CAT_ID": 34434, "ELEMENT_SET_NO": 999, "REV_AT_EPOCH": 84139, "BSTAR": 0.0020112, "MEAN_MOTION_DOT": 3.324e-05, "MEAN_MOTION_DDOT": 0}, "tle": {"line1": "1 34434U 93036SB  25359.19548233  .00003324  00000+0  20112-2 0  9997", "line2": "2 34434  74.0626 348.9386 0273478 123.2060 339.3299 13.89880874841390"}}, "geometry": {"type": "Point", "coordinates": [127.48580565266177, 66.44859723498195]}}, {"type": "Feature", "properties": {"norad_id": 34446, "name": "COSMOS 2251 DEB", "group": "cosmos-2251-debris", "lat": 35.57443956359077, "lon": -158.4287626889777, "alt_km": 692.535936833503, "timestamp": "2025-12-25T11:37:44.833810+00:00", "meta": {"OBJECT_NAME": "COSMOS 2251 DEB", "OBJECT_ID": "1993-036SP", "EPOCH": "2025-12-24T21:43:11.581824", "MEAN_MOTION": 14.49365513, "ECCENTRICITY": 0.005054, "INCLINATION": 74.0415, "RA_OF_ASC_NODE": 34.4678, "ARG_OF_PERICENTER": 169.5596, "MEAN_ANOMALY": 190.6627, "EPHEMERIS_TYPE": 0, "CLASSIFICATION_TYPE": "U", "NORAD_CAT_ID": 34446, "ELEMENT_SET_NO": 999, "REV_AT_EPOCH": 88870, "BSTAR": 0.00011866, "MEAN_MOTION_DOT": 4.32e-06, "MEAN_MOTION_DDOT": 0}, "tle": {"line1": "1 34446U 93036SP  25358.90499516  .00000432  00000+0  11866-3 0  9991", "line2": "2 34446  74.0415  34.4678 0050540 169.5596 190.6627 14.49365513888704"}}, "geometry": {"type": "Point", "coordinates": [-158.4287626889777, 35.57443956359077]}}, {"type": "Feature", "properties": {"norad_id": 34449, "name": "COSMOS 2251 DEB", "group": "cosmos-2251-debris", "lat": -49.54649770179617, "lon": -115.53675609569102, "alt_km": 601.2227946378944, "timestamp": "2025-12-25T11:37:44.833820+00:00", "meta": {"OBJECT_NAME": "COSMOS 2251 DEB", "OBJECT_ID": "1993-036SS", "EPOCH": "2025-12-24T14:24:05.743008", "MEAN_MOTION": 14.95490862, "ECCENTRICITY": 0.00226973, "INCLINATION": 74.0318, "RA_OF_ASC_NODE": 46.626, "ARG_OF_PERICENTER": 81.975, "MEAN_ANOMALY": 70.2612, "EPHEMERIS_TYPE": 0, "CLASSIFICATION_TYPE": "U", "NORAD_CAT_ID": 34449, "ELEMENT_SET_NO": 999, "REV_AT_EPOCH": 88870, "BSTAR": 0.0024584939, "MEAN_MOTION_DOT": 0.00027436, "MEAN_MOTION_DDOT": 0}, "tle": {"line1": "1 34449U 93036SS  25358.60006647  .00027436  00000+0  24585-2 0  9994", "line2": "2 34449  74.0318  46.6260 0022697  81.9750  70.2612 14.95490862888706"}}, "geometry": {"type": "Point", "coordinates": [-115.53675609569102, -49.54649770179617]}}, {"type": "Feature", "properties": {"norad_id": 34451, "name": "COSMOS 2251 DEB", "group": "cosmos-2251-debris", "lat": -52.67918273863539, "lon": -95.81337025117607, "alt_km": 600.8660416824787, "timestamp": "2025-12-25T11:37:44.833830+00:00", "meta": {"OBJECT_NAME": "COSMOS 2251 DEB", "OBJECT_ID": "1993-036SU", "EPOCH": "2025-12-24T13:43:09.918048", "MEAN_MOTION": 14.96220659, "ECCENTRICITY": 0.00240246, "INCLINATION": 74.0454, "RA_OF_ASC_NODE": 63.9892, "ARG_OF_PERICENTER": 76.6321, "MEAN_ANOMALY": 283.754, "EPHEMERIS_TYPE": 0, "CLASSIFICATION_TYPE": "U", "NORAD_CAT_ID": 34451, "ELEMENT_SET_NO": 999, "REV_AT_EPOCH": 88812, "BSTAR": 0.0026240583, "MEAN_MOTION_DOT": 0.00029867, "MEAN_MOTION_DDOT": 0}, "tle": {"line1": "1 34451U 93036SU  25358.57164257  .00029867  00000+0  26241-2 0  9996", "line2": "2 34451  74.0454  63.9892 0024024  76.6321 283.7540 14.96220659888127"}}, "geometry": {"type": "Point", "coordinates": [-95.81337025117607, -52.67918273863539]}}, {"type": "Feature", "properties": {"norad_id": 34452, "name": "COSMOS 2251 DEB", "group": "cosmos-2251-debris", "lat": -23.074011535536975, "lon": 149.4285896426628, "alt_km": 547.2378562689, "timestamp": "2025-12-25T11:37:44.833840+00:00", "meta": {"OBJECT_NAME": "COSMOS 2251 DEB", "OBJECT_ID": "1993-036SV", "EPOCH": "2025-12-24T16:45:03.093408", "MEAN_MOTION": 15.12007528, "ECCENTRICITY": 0.00642345, "INCLINATION": 74.0321, "RA_OF_ASC_NODE": 158.0634, "ARG_OF_PERICENTER": 231.7157, "MEAN_ANOMALY": 143.8248, "EPHEMERIS_TYPE": 0, "CLASSIFICATION_TYPE": "U", "NORAD_CAT_ID": 34452, "ELEMENT_SET_NO": 999, "REV_AT_EPOCH": 90843, "BSTAR": 0.00099409087, "MEAN_MOTION_DOT": 0.00017951, "MEAN_MOTION_DDOT": 0}, "tle": {"line1": "1 34452U 93036SV  25358.69795247  .00017951  00000+0  99409-3 0  9997", "line2": "2 34452  74.0321 158.0634 0064234 231.7157 143.8248 15.12007528908434"}}, "geometry": {"type": "Point", "coordinates": [149.4285896426628, -23.074011535536975]}}, {"type": "Feature", "properties": {"norad_id": 34454, "name": "COSMOS 2251 DEB", "group": "cosmos-2251-debris", "lat": -72.05561501140303, "lon": 136.12447207238858, "alt_km": 753.631069431005, "timestamp": "2025-12-25T11:37:44.833850+00:00", "meta": {"OBJECT_NAME": "COSMOS 2251 DEB", "OBJECT_ID": "1993-036SX", "EPOCH": "2025-12-24T19:23:44.422656", "MEAN_MOTION": 14.38826373, "ECCENTRICITY": 0.00359643, "INCLINATION": 74.0584, "RA_OF_ASC_NODE": 255.4119, "ARG_OF_PERICENTER": 315.5668, "MEAN_ANOMALY": 44.2602, "EPHEMERIS_TYPE": 0, "CLASSIFICATION_TYPE": "U", "NORAD_CAT_ID": 34454, "ELEMENT_SET_NO": 999, "REV_AT_EPOCH": 88241, "BSTAR": 0.00020848352, "MEAN_MOTION_DOT": 6.2e-06, "MEAN_MOTION_DDOT": 0}, "tle": {"line1": "1 34454U 93036SX  25358.80815304  .00000620  00000+0  20848-3 0  9995", "line2": "2 34454  74.0584 255.4119 0035964 315.5668  44.2602 14.38826373882414"}}, "geometry": {"type": "Point", "coordinates": [136.12447207238858, -72.05561501140303]}}, {"type": "Feature", "properties": {"norad_id": 34459, "name": "COSMOS 2251 DEB", "group": "cosmos-2251-debris", "lat": -52.65335116552596, "lon": -149.94648254489954, "alt_km": 759.5037055528583, "timestamp": "2025-12-25T11:37:44.833860+00:00", "meta": {"OBJECT_NAME": "COSMOS 2251 DEB", "OBJECT_ID": "1993-036TC", "EPOCH": "2025-12-24T23:53:11.652000", "MEAN_MOTION": 14.00517441, "ECCENTRICITY": 0.0192132, "INCLINATION": 74.0779, "RA_OF_ASC_NODE": 232.8663, "ARG_OF_PERICENTER": 299.8727, "MEAN_ANOMALY": 58.3436, "EPHEMERIS_TYPE": 0, "CLASSIFICATION_TYPE": "U", "NORAD_CAT_ID": 34459, "ELEMENT_SET_NO": 999, "REV_AT_EPOCH": 85883, "BSTAR": 0.00035903, "MEAN_MOTION_DOT": 6e-06, "MEAN_MOTION_DDOT": 0}, "tle": {"line1": "1 34459U 93036TC  25358.99527375  .00000600  00000+0  35903-3 0  9994", "line2": "2 34459  74.0779 232.8663 0192132 299.8727  58.3436 14.00517441858831"}}, "geometry": {"type": "Point", "coordinates": [-149.94648254489954, -52.65335116552596]}}, {"type": "Feature", "properties": {"norad_id": 34464, "name": "COSMOS 2251 DEB", "group": "cosmos-2251-debris", "lat": 14.244322025900852, "lon": -133.02657482058794, "alt_km": 476.3302073021532, "timestamp": "2025-12-25T11:37:44.833870+00:00", "meta": {"OBJECT_NAME": "COSMOS 2251 DEB", "OBJECT_ID": "1993-036TH", "EPOCH": "2025-12-24T05:04:02.299008", "MEAN_MOTION": 15.28657162, "ECCENTRICITY": 0.00141041, "INCLINATION": 73.9883, "RA_OF_ASC_NODE": 53.8659, "ARG_OF_PERICENTER": 236.6213, "MEAN_ANOMALY": 123.364, "EPHEMERIS_TYPE": 0, "CLASSIFICATION_TYPE": "U", "NORAD_CAT_ID": 34464, "ELEMENT_SET_NO": 999, "REV_AT_EPOCH": 90015, "BSTAR": 0.002998465, "MEAN_MOTION_DOT": 0.00084749, "MEAN_MOTION_DDOT": 0}, "tle": {"line1": "1 34464U 93036TH  25358.21113772  .00084749  00000+0  29985-2 0  9995", "line2": "2 34464  73.9883  53.8659 0014104 236.6213 123.3640 15.28657162900157"}}, "geometry": {"type": "Point", "coordinates": [-133.02657482058794, 14.244322025900852]}}, {"type": "Feature", "properties": {"norad_id": 34468, "name": "COSMOS 2251 DEB", "group": "cosmos-2251-debris", "lat": -48.133602526781004, "lon": 74.67123930735912, "alt_km": 724.1270493992361, "timestamp": "2025-12-25T11:37:44.833880+00:00", "meta": {"OBJECT_NAME": "COSMOS 2251 DEB", "OBJECT_ID": "1993-036TM", "EPOCH": "2025-12-25T00:15:14.558688", "MEAN_MOTION": 14.47656894, "ECCENTRICITY": 0.0076252, "INCLINATION": 74.0132, "RA_OF_ASC_NODE": 94.2152, "ARG_OF_PERICENTER": 236.6703, "MEAN_ANOMALY": 122.7141, "EPHEMERIS_TYPE": 0, "CLASSIFICATION_TYPE": "U", "NORAD_CAT_ID": 34468, "ELEMENT_SET_NO": 999, "REV_AT_EPOCH": 88639, "BSTAR": 0.00036208, "MEAN_MOTION_DOT": 1.355e-05, "MEAN_MOTION_DDOT": 0}, "tle": {"line1": "1 34468U 93036TM  25359.01058517  .00001355  00000+0  36208-3 0  9992", "line2": "2 34468  74.0132  94.2152 0076252 236.6703 122.7141 14.47656894886392"}}, "geometry": {"type": "Point", "coordinates": [74.67123930735912, -48.133602526781004]}}]}